[{"OBJECT_NAME":"STARLINK-5475","OBJECT_ID":"2023-021AK","EPOCH":"2026-03-09T22:57:25.060320","MEAN_MOTION":14.98345501,"ECCENTRICITY":0.00035161,"INCLINATION":70.0003,"RA_OF_ASC_NODE":163.821,"ARG_OF_PERICENTER":272.1774,"MEAN_ANOMALY":87.8983,"EPHEMERIS_TYPE":0,"CLASSIFICATION_TYPE":"U","NORAD_CAT_ID":55661,"ELEMENT_SET_NO":999,"REV_AT_EPOCH":16932,"BSTAR":-0.00026487286,"MEAN_MOTION_DOT":-3.253e-5,"MEAN_MOTION_DDOT":0},{"OBJECT_NAME":"SITRO-AIS 14","OBJECT_ID":"2024-199T","EPOCH":"2026-03-09T22:54:28.226304","MEAN_MOTION":14.97122201,"ECCENTRICITY":0.00071847,"INCLINATION":97.3313,"RA_OF_ASC_NODE":274.5243,"ARG_OF_PERICENTER":48.7211,"MEAN_ANOMALY":311.463,"EPHEMERIS_TYPE":0,"CLASSIFICATION_TYPE":"U","NORAD_CAT_ID":61752,"ELEMENT_SET_NO":999,"REV_AT_EPOCH":12027,"BSTAR":0.00031190269,"MEAN_MOTION_DOT":3.549e-5,"MEAN_MOTION_DDOT":0}]
